[{"OBJECT_NAME":"ONEWEB-0554","OBJECT_ID":"2023-043L","EPOCH":"2026-03-09T22:00:48.822336","MEAN_MOTION":13.16593386,"ECCENTRICITY":0.00013087,"INCLINATION":87.9001,"RA_OF_ASC_NODE":248.5289,"ARG_OF_PERICENTER":98.741,"MEAN_ANOMALY":261.3869,"EPHEMERIS_TYPE":0,"CLASSIFICATION_TYPE":"U","NORAD_CAT_ID":56056,"ELEMENT_SET_NO":999,"REV_AT_EPOCH":14589,"BSTAR":-0.00015808605,"MEAN_MOTION_DOT":-4.8e-7,"MEAN_MOTION_DDOT":0},{"OBJECT_NAME":"SL-14 DEB","OBJECT_ID":"1991-056BN","EPOCH":"2026-03-08T15:37:46.529472","MEAN_MOTION":13.20996142,"ECCENTRICITY":0.00237571,"INCLINATION":82.548,"RA_OF_ASC_NODE":198.6076,"ARG_OF_PERICENTER":313.4595,"MEAN_ANOMALY":46.4553,"EPHEMERIS_TYPE":0,"CLASSIFICATION_TYPE":"U","NORAD_CAT_ID":45324,"ELEMENT_SET_NO":999,"REV_AT_EPOCH":29224,"BSTAR":0.00055646869,"MEAN_MOTION_DOT":2.4e-6,"MEAN_MOTION_DDOT":0}]
